STARLINK-31646          
1 59265U 24050M   25229.89267850  .00001204  00000+0  52776-4 0  9990
2 59265  53.1612  47.7975 0000527  87.0887 273.0174 15.30194682 80504
STARLINK-31648          
1 59266U 24050N   25230.19602160  .00000420  00000+0  26284-4 0  9997
2 59266  53.1596  46.1409 0000496  74.9990 285.1066 15.30213821 80552
STARLINK-31579          
1 59267U 24050P   25229.75255378 -.00000071  00000+0  97394-5 0  9997
2 59267  53.1614  48.3460 0001131  94.5276 265.5854 15.30187807 79321
STARLINK-31627          
1 59268U 24050Q   25229.90533868  .00001034  00000+0  47031-4 0  9999
2 59268  53.1614  47.8751 0001067  77.7151 282.3969 15.30199098 79343
STARLINK-31609          
1 59269U 24050R   25229.82419742  .00001189  00000+0  52257-4 0  9992
2 59269  53.1611  48.0790 0001168  96.9528 263.1605 15.30192859 79331
STARLINK-31616          
1 59270U 24050S   25229.89584180  .00000626  00000+0  33275-4 0  9994
2 59270  53.1609  47.8168 0001188  86.5271 273.5865 15.30194913 79345
STARLINK-31630          
1 59271U 24050T   25229.83841574  .00000797  00000+0  39040-4 0  9997
2 59271  53.1600  35.3753 0001013 100.6607 259.4508 15.30192064 79518
STARLINK-31623          
1 59272U 24050U   25229.85410524  .00016703  00000+0  56522-3 0  9994
2 59272  53.1587  47.5637 0001332  79.8838 280.2313 15.30745916 80503
STARLINK-31595          
1 59273U 24050V   25229.87263585 -.00001461  00000+0 -37199-4 0  9997
2 59273  53.1613  47.6873 0001166  97.4459 262.6674 15.30202182 79344
YUNHAI-2 02A            
1 59280U 24052A   25230.20496239  .00000050  00000+0  84887-4 0  9997
2 59280  50.0095 286.4924 0011804 164.3077 195.8206 14.27788593 72343
YUNHAI-2 02B            
1 59281U 24052B   25230.18265429  .00000066  00000+0  91189-4 0  9990
2 59281  50.0098 226.3504 0004884 210.1162 149.9473 14.27802268 73319
YUNHAI-2 02C            
1 59282U 24052C   25230.15718541  .00000066  00000+0  91286-4 0  9994
2 59282  50.0117 346.4137 0006675 178.8811 181.2119 14.27791527 71206
YUNHAI-2 02D            
1 59283U 24052D   25230.06925200  .00000009  00000+0  68386-4 0  9999
2 59283  50.0082 106.8190 0004401 240.7019 119.3457 14.27821691 75172
YUNHAI-2 02E            
1 59284U 24052E   25230.15834127  .00000087  00000+0  99590-4 0  9994
2 59284  50.0112 166.7214 0011749  74.3890 285.8321 14.27788704 74276
YUNHAI-2 02F            
1 59285U 24052F   25230.17949193  .00000080  00000+0  97071-4 0  9992
2 59285  50.0125  46.7475 0005674 198.0406 162.0308 14.27807788 76103
MOLA                    
1 59289U 24053B   25229.52171104  .00015040  00000+0  40217-3 0  9994
2 59289  49.9860  48.5103 0002969 177.5568 182.5408 15.38211019 74456
AEROCUBE 16A            
1 59290U 24053C   25229.80180350  .00009589  00000+0  30660-3 0  9992
2 59290  49.9921  55.2282 0004432 172.1690 187.9339 15.33032901 74394
AEROCUBE 16B            
1 59291U 24053D   25229.80299059  .00009727  00000+0  31086-3 0  9997
2 59291  49.9940  55.3102 0004328 169.5921 190.5128 15.33029343 74470
STARLINK-31463          
1 59296U 24056A   25230.23068735 -.00001249  00000+0 -35856-4 0  9992
2 59296  42.9999 295.7864 0001090 293.0365  67.0372 15.27585296 80096
STARLINK-31487          
1 59297U 24056B   25230.21878611  .00003926  00000+0  15212-3 0  9998
2 59297  43.0005 300.0196 0001338 272.0406  88.0292 15.27580916 80147
STARLINK-31386          
1 59298U 24056C   25229.48154036  .00000682  00000+0  34294-4 0  9992
2 59298  42.9993 303.9416 0001438 269.4815  90.5872 15.27575419 79922
STARLINK-31409          
1 59299U 24056D   25229.87739380 -.00001473  00000+0 -44022-4 0  9998
2 59299  42.9998 294.8373 0001281 271.8833  88.1871 15.27586885 80182
STARLINK-31489          
1 59300U 24056E   25230.18537228  .00000693  00000+0  34699-4 0  9994
2 59300  43.0040 299.7668 0001174 270.4986  89.5731 15.27575836 80040
STARLINK-31502          
1 59301U 24056F   25229.45937917 -.00003593  00000+0 -12105-3 0  9993
2 59301  43.0016 296.8475 0001399 262.6327  97.4366 15.27593104 80005
STARLINK-31447          
1 59302U 24056G   25230.20337404 -.00003783  00000+0 -12804-3 0  9991
2 59302  43.0034 299.9060 0001652 270.7103  89.3559 15.27567549 80046
STARLINK-31504          
1 59303U 24056H   25230.21106893 -.00000418  00000+0 -56745-5 0  9995
2 59303  42.9986 299.9548 0000981 253.6672 106.4072 15.27566764 80046
STARLINK-31474          
1 59304U 24056J   25230.20946779 -.00000176  00000+0  31123-5 0  9993
2 59304  42.9991 293.0228 0001207 276.5808  83.4906 15.27576422 79916
STARLINK-31500          
1 59305U 24056K   25230.20721811  .00000991  00000+0  45552-4 0  9996
2 59305  42.9984 299.9279 0001626 265.0426  95.0240 15.27576528 79988
STARLINK-31480          
1 59306U 24056L   25229.47383069  .00003511  00000+0  13703-3 0  9996
2 59306  43.0038 303.8822 0001553 267.4845  92.5829 15.27581593 79927
STARLINK-31282          
1 59307U 24056M   25229.88798884 -.00003069  00000+0 -10200-3 0  9996
2 59307  43.0009 301.8336 0001385 269.5856  90.4837 15.27591206 79986
