OBJECT_NAME,OBJECT_ID,EPOCH,MEAN_MOTION,ECCENTRICITY,INCLINATION,RA_OF_ASC_NODE,ARG_OF_PERICENTER,MEAN_ANOMALY,EPHEMERIS_TYPE,CLASSIFICATION_TYPE,NORAD_CAT_ID,ELEMENT_SET_NO,REV_AT_EPOCH,BSTAR,MEAN_MOTION_DOT,MEAN_MOTION_DDOT
STARLINK-31646,2024-050M,2025-08-17T21:25:27.422400,15.30194682,5.27e-05,53.1612,47.7975,87.0887,273.0174,0,U,59265,999,8050,5.2776e-05,1.204e-05,0.0
STARLINK-31648,2024-050N,2025-08-18T04:42:16.266240,15.30213821,4.96e-05,53.1596,46.1409,74.999,285.1066,0,U,59266,999,8055,2.6284e-05,4.2e-06,0.0
STARLINK-31579,2024-050P,2025-08-17T18:03:40.646592,15.30187807,0.0001131,53.1614,48.346,94.5276,265.5854,0,U,59267,999,7932,9.7394e-06,-7.1e-07,0.0
STARLINK-31627,2024-050Q,2025-08-17T21:43:41.261952,15.30199098,0.0001067,53.1614,47.8751,77.7151,282.3969,0,U,59268,999,7934,4.7031e-05,1.034e-05,0.0
STARLINK-31609,2024-050R,2025-08-17T19:46:50.657088,15.30192859,0.0001168,53.1611,48.079,96.9528,263.1605,0,U,59269,999,7933,5.2257e-05,1.189e-05,0.0
STARLINK-31616,2024-050S,2025-08-17T21:30:00.731520,15.30194913,0.0001188,53.1609,47.8168,86.5271,273.5865,0,U,59270,999,7934,3.3275e-05,6.26e-06,0.0
STARLINK-31630,2024-050T,2025-08-17T20:07:19.119936,15.30192064,0.0001013,53.16,35.3753,100.6607,259.4508,0,U,59271,999,7951,3.904e-05,7.97e-06,0.0
STARLINK-31623,2024-050U,2025-08-17T20:29:54.692736,15.30745916,0.0001332,53.1587,47.5637,79.8838,280.2313,0,U,59272,999,8050,0.00056522,0.00016703,0.0
STARLINK-31595,2024-050V,2025-08-17T20:56:35.737440,15.30202182,0.0001166,53.1613,47.6873,97.4459,262.6674,0,U,59273,999,7934,-3.7199e-05,-1.461e-05,0.0
YUNHAI-2 02A,2024-052A,2025-08-18T04:55:08.750496,14.27788593,0.0011804,50.0095,286.4924,164.3077,195.8206,0,U,59280,999,7234,8.4887e-05,5e-07,0.0
YUNHAI-2 02B,2024-052B,2025-08-18T04:23:01.330656,14.27802268,0.0004884,50.0098,226.3504,210.1162,149.9473,0,U,59281,999,7331,9.1189e-05,6.6e-07,0.0
YUNHAI-2 02C,2024-052C,2025-08-18T03:46:20.819424,14.27791527,0.0006675,50.0117,346.4137,178.8811,181.2119,0,U,59282,999,7120,9.1286e-05,6.6e-07,0.0
YUNHAI-2 02D,2024-052D,2025-08-18T01:39:43.372800,14.27821691,0.0004401,50.0082,106.819,240.7019,119.3457,0,U,59283,999,7517,6.8386e-05,9e-08,0.0
YUNHAI-2 02E,2024-052E,2025-08-18T03:48:00.685728,14.27788704,0.0011749,50.0112,166.7214,74.389,285.8321,0,U,59284,999,7427,9.959e-05,8.7e-07,0.0
YUNHAI-2 02F,2024-052F,2025-08-18T04:18:28.102752,14.27807788,0.0005674,50.0125,46.7475,198.0406,162.0308,0,U,59285,999,7610,9.7071e-05,8e-07,0.0
MOLA,2024-053B,2025-08-17T12:31:15.833856,15.38211019,0.0002969,49.986,48.5103,177.5568,182.5408,0,U,59289,999,7445,0.00040217,0.0001504,0.0
AEROCUBE 16A,2024-053C,2025-08-17T19:14:35.822400,15.33032901,0.0004432,49.9921,55.2282,172.169,187.9339,0,U,59290,999,7439,0.0003066,9.589e-05,0.0
AEROCUBE 16B,2024-053D,2025-08-17T19:16:18.386976,15.33029343,0.0004328,49.994,55.3102,169.5921,190.5128,0,U,59291,999,7447,0.00031086,9.727e-05,0.0
STARLINK-31463,2024-056A,2025-08-18T05:32:11.387040,15.27585296,0.000109,42.9999,295.7864,293.0365,67.0372,0,U,59296,999,8009,-3.5856e-05,-1.249e-05,0.0
STARLINK-31487,2024-056B,2025-08-18T05:15:03.119904,15.27580916,0.0001338,43.0005,300.0196,272.0406,88.0292,0,U,59297,999,8014,0.00015212,3.926e-05,0.0
STARLINK-31386,2024-056C,2025-08-17T11:33:25.087104,15.27575419,0.0001438,42.9993,303.9416,269.4815,90.5872,0,U,59298,999,7992,3.4294e-05,6.82e-06,0.0
STARLINK-31409,2024-056D,2025-08-17T21:03:26.824320,15.27586885,0.0001281,42.9998,294.8373,271.8833,88.1871,0,U,59299,999,8018,-4.4022e-05,-1.473e-05,0.0
STARLINK-31489,2024-056E,2025-08-18T04:26:56.164992,15.27575836,0.0001174,43.004,299.7668,270.4986,89.5731,0,U,59300,999,8004,3.4699e-05,6.93e-06,0.0
STARLINK-31502,2024-056F,2025-08-17T11:01:30.360288,15.27593104,0.0001399,43.0016,296.8475,262.6327,97.4366,0,U,59301,999,8000,-0.00012105,-3.593e-05,0.0
STARLINK-31447,2024-056G,2025-08-18T04:52:51.517056,15.27567549,0.0001652,43.0034,299.906,270.7103,89.3559,0,U,59302,999,8004,-0.00012804,-3.783e-05,0.0
STARLINK-31504,2024-056H,2025-08-18T05:03:56.355552,15.27566764,9.81e-05,42.9986,299.9548,253.6672,106.4072,0,U,59303,999,8004,-5.6745e-06,-4.18e-06,0.0
STARLINK-31474,2024-056J,2025-08-18T05:01:38.017056,15.27576422,0.0001207,42.9991,293.0228,276.5808,83.4906,0,U,59304,999,7991,3.1123e-06,-1.76e-06,0.0
STARLINK-31500,2024-056K,2025-08-18T04:58:23.644704,15.27576528,0.0001626,42.9984,299.9279,265.0426,95.024,0,U,59305,999,7998,4.5552e-05,9.91e-06,0.0
STARLINK-31480,2024-056L,2025-08-17T11:22:18.971616,15.27581593,0.0001553,43.0038,303.8822,267.4845,92.5829,0,U,59306,999,7992,0.00013703,3.511e-05,0.0
STARLINK-31282,2024-056M,2025-08-17T21:18:42.235776,15.27591206,0.0001385,43.0009,301.8336,269.5856,90.4837,0,U,59307,999,7998,-0.000102,-3.069e-05,0.0
